33064,ORBCOMM FM37,2008,97.3,-1.0,-,48.44,Inactive,0,LEO,Russia,ORBCOMM,Unknown,Unknown,Unknown,1 33064U 08031E   25214.21237502  .00001474  00000+0  22112-3 0  9990,2 33064  48.4401 124.8088 0005346 216.5391 303.6960 14.79892185920861,14.79892185,0.0005346,LEO
33065,ORBCOMM FM40,2008,97.16,-1.0,-,48.44,Inactive,0,LEO,Russia,ORBCOMM,Unknown,Unknown,Unknown,1 33065U 08031F   25214.25439854  .00002036  00000+0  27952-3 0  9991,2 33065  48.4408 107.8684 0006571 228.8213 282.3678 14.82186471920993,14.82186471,0.0006571,LEO
37840,VESSELSAT 1,2011,102.03,-1.0,-,19.96,Inactive,0,LEO,India,Luxembourg,Unknown,Unknown,Unknown,1 37840U 11058C   25214.26710291  .00000355  00000+0  48924-4 0  9992,2 37840  19.9605 175.0557 0013540 334.2342  25.7387 14.11360506712827,14.11360506,0.001354,LEO
40088,ORBCOMM FM106,2014,97.99,-1.0,-,47.06,Inactive,0,LEO,USA,ORBCOMM,Unknown,Unknown,Unknown,1 40088U 14040C   25214.53385508  .00000930  00000+0  18640-3 0  9993,2 40088  47.0621 336.7331 0017630 280.5062  79.3843 14.69527444590293,14.69527444,0.001763,LEO
40089,ORBCOMM FM111,2014,96.87,-1.0,-,47.0,Inactive,0,LEO,USA,ORBCOMM,Unknown,Unknown,Unknown,1 40089U 14040D   25214.39653719  .00002709  00000+0  32498-3 0  9993,2 40089  46.9998 181.3084 0029752  52.2137 308.1448 14.86494111597107,14.86494111,0.0029752,LEO
40090,ORBCOMM FM104,2014,98.85,-1.0,-,47.0,Inactive,0,LEO,USA,ORBCOMM,Unknown,Unknown,Unknown,1 40090U 14040E   25214.43174657  .00000525  00000+0  15402-3 0  9999,2 40090  47.0035 192.9922 0015721  53.3170 306.9157 14.56695063587368,14.56695063,0.0015721,LEO
40086,ORBCOMM FM109,2014,98.75,172.0,+,47.0,Active,1,LEO,USA,ORBCOMM,Commercial,Communications,Falcon,1 40086U 14040A   25214.36616327  .00000607  00000+0  16664-3 0  9993,2 40086  47.0026 158.1892 0001702 224.1580 135.9170 14.58227859587800,14.58227859,0.0001702,LEO
40087,ORBCOMM FM107,2014,98.74,172.0,+,47.0,Active,1,LEO,USA,ORBCOMM,Commercial,Communications,Falcon,1 40087U 14040B   25214.46100859  .00000618  00000+0  16884-3 0  9999,2 40087  47.0043 158.6879 0000393 168.1817 191.9078 14.58302495587893,14.58302495,3.93e-05,LEO
